NORAD_CAT_ID,OBJECT_NAME,OBJECT_TYPE,EPOCH,MEAN_MOTION,ECCENTRICITY,INCLINATION,RA_OF_ASC_NODE,ARG_OF_PERICENTER,MEAN_ANOMALY,BSTAR,MEAN_MOTION_DOT,MEAN_MOTION_DDOT,TLE_LINE0,TLE_LINE1,TLE_LINE2,SEMIMAJOR_AXIS,PERIOD,APOGEE,PERIGEE,DECAYED
55270.0,STARLINK-5301,PAYLOAD,2023-11-20 20:38:43,14.98306629,0.0002627,69.9997,2.1257,281.1614,78.925,0.00050294,5.909e-05,0.0,0 STARLINK-5301,1 55270U 23010B   23324.86022450  .00005909  00000-0  50294-3 0  9992,2 55270  69.9997   2.1257 0002627 281.1614  78.9250 14.98306629 46983,6950.265,96.108,573.956,570.304,0.0
55270.0,STARLINK-5301,PAYLOAD,2023-11-21 12:40:03,14.98333561,0.0002863,69.9997,0.4428,270.392,89.6911,7.7611e-05,8.33e-06,0.0,0 STARLINK-5301,1 55270U 23010B   23325.52781298  .00000833  00000-0  77611-4 0  9992,2 55270  69.9997   0.4428 0002863 270.3920  89.6911 14.98333561 47086,6950.182,96.107,574.037,570.057,0.0
55270.0,STARLINK-5301,PAYLOAD,2023-11-22 03:05:15,14.98331669,0.0002938,69.9994,358.9275,274.424,85.6583,8.4722e-05,9.18e-06,0.0,0 STARLINK-5301,1 55270U 23010B   23326.12865318  .00000918  00000-0  84722-4 0  9990,2 55270  69.9994 358.9275 0002938 274.4240  85.6583 14.98331669 46860,6950.188,96.107,574.095,570.011,0.0
55270.0,STARLINK-5301,PAYLOAD,2023-11-22 12:42:03,14.98346333,0.0002793,69.9996,357.9182,272.2305,87.8534,-5.6791e-05,-7.71e-06,0.0,0 STARLINK-5301,1 55270U 23010B   23326.52920559 -.00000771  00000-0 -56791-4 0  9997,2 55270  69.9996 357.9182 0002793 272.2305  87.8534 14.98346333 47231,6950.142,96.106,573.949,570.066,0.0
55270.0,STARLINK-5301,PAYLOAD,2023-11-23 03:07:16,14.98339964,0.0002329,70.0003,356.4032,274.2223,85.867,-8.6648e-05,-1.127e-05,0.0,0 STARLINK-5301,1 55270U 23010B   23327.13005175 -.00001127  00000-0 -86648-4 0  9993,2 55270  70.0003 356.4032 0002329 274.2223  85.8670 14.98339964 47014,6950.162,96.106,573.646,570.408,0.0
55270.0,STARLINK-5301,PAYLOAD,2023-11-23 11:07:56,14.98328031,0.0002424,69.9998,355.5618,257.0729,103.0159,9.1609e-05,1e-05,0.0,0 STARLINK-5301,1 55270U 23010B   23327.46385384  .00001000  00000-0  91609-4 0  9993,2 55270  69.9998 355.5618 0002424 257.0729 103.0159 14.98328031 47377,6950.199,96.107,573.749,570.379,0.0
55270.0,STARLINK-5301,PAYLOAD,2023-11-24 11:09:58,14.98340811,0.0002482,69.9999,353.037,254.1644,105.9242,-0.00033574,-4.098e-05,0.0,0 STARLINK-5301,1 55270U 23010B   23328.46525552 -.00004098  00000-0 -33574-3 0  9995,2 55270  69.9999 353.0370 0002482 254.1644 105.9242 14.98340811 47211,6950.159,96.106,573.749,570.299,0.0
55270.0,STARLINK-5301,PAYLOAD,2023-11-24 12:46:06,14.98322865,0.0002478,70.0001,352.8688,259.4221,100.6659,-2.9519e-05,-4.45e-06,0.0,0 STARLINK-5301,1 55270U 23010B   23328.53202200 -.00000445  00000-0 -29519-4 0  9992,2 55270  70.0001 352.8688 0002478 259.4221 100.6659 14.98322865 47539,6950.215,96.107,573.802,570.358,0.0
55270.0,STARLINK-5301,PAYLOAD,2023-11-25 03:11:18,14.98328888,0.0002463,70.0006,351.3549,252.7633,107.3256,0.00010346,1.142e-05,0.0,0 STARLINK-5301,1 55270U 23010B   23329.13285486  .00001142  00000-0  10346-3 0  9996,2 55270  70.0006 351.3549 0002463 252.7633 107.3256 14.98328888 47315,6950.196,96.107,573.773,570.349,0.0
55270.0,STARLINK-5301,PAYLOAD,2023-11-25 11:11:58,14.98334027,0.0002363,70.0005,350.5144,247.9382,112.1526,0.00013188,1.481e-05,0.0,0 STARLINK-5301,1 55270U 23010B   23329.46665177  .00001481  00000-0  13188-3 0  9994,2 55270  70.0005 350.5144 0002363 247.9382 112.1526 14.98334027 47677,6950.18,96.107,573.688,570.403,0.0
55270.0,STARLINK-5301,PAYLOAD,2023-11-26 03:13:18,14.98336431,0.0002392,70.0002,348.8305,257.2079,102.8812,0.00025531,2.955e-05,0.0,0 STARLINK-5301,1 55270U 23010B   23330.13424646  .00002955  00000-0  25531-3 0  9996,2 55270  70.0002 348.8305 0002392 257.2079 102.8812 14.98336431 47464,6950.173,96.107,573.7,570.376,0.0
55270.0,STARLINK-5301,PAYLOAD,2023-11-26 11:13:59,14.98336686,0.0002353,70.0002,347.988,254.6122,105.4777,0.00023862,2.756e-05,0.0,0 STARLINK-5301,1 55270U 23010B   23330.46804605  .00002756  00000-0  23862-3 0  9993,2 55270  70.0002 347.9880 0002353 254.6122 105.4777 14.98336686 47820,6950.172,96.107,573.673,570.402,0.0
55270.0,STARLINK-5301,PAYLOAD,2023-11-27 03:15:21,14.98319675,0.0002333,70.0034,346.3122,218.2511,141.8482,-5.1474e-05,-7.07e-06,0.0,0 STARLINK-5301,1 55270U 23010B   23331.13566449 -.00000707  00000-0 -51474-4 0  9996,2 55270  70.0034 346.3122 0002333 218.2511 141.8482 14.98319675 47616,6950.225,96.108,573.711,570.468,0.0
55270.0,STARLINK-5301,PAYLOAD,2023-11-27 11:16:02,14.98314335,0.0002412,70.0,345.4613,257.7385,102.3504,-0.000182,-2.263e-05,0.0,0 STARLINK-5301,1 55270U 23010B   23331.46947288 -.00002263  00000-0 -18200-3 0  9994,2 55270  70.0000 345.4613 0002412 257.7385 102.3504 14.98314335 47669,6950.241,96.108,573.783,570.43,0.0
55270.0,STARLINK-5301,PAYLOAD,2023-11-28 03:17:22,14.98325282,0.0002845,69.9996,343.7757,278.3889,81.6948,-3.1161e-05,-4.65e-06,0.0,0 STARLINK-5301,1 55270U 23010B   23332.13706568 -.00000465  00000-0 -31161-4 0  9997,2 55270  69.9996 343.7757 0002845 278.3889  81.6948 14.98325282 47763,6950.207,96.107,574.05,570.095,0.0
55270.0,STARLINK-5301,PAYLOAD,2023-11-28 11:18:02,14.98329554,0.0002244,70.0004,342.9355,255.0229,105.0681,1.0555e-05,3.3e-07,0.0,0 STARLINK-5301,1 55270U 23010B   23332.47086254  .00000033  00000-0  10555-4 0  9990,2 55270  70.0004 342.9355 0002244 255.0229 105.0681 14.98329554 47811,6950.194,96.107,573.619,570.5,0.0
55270.0,STARLINK-5301,PAYLOAD,2023-11-29 09:43:54,14.98333174,0.0002497,69.9997,340.5795,257.7419,102.3461,0.00037976,4.441e-05,0.0,0 STARLINK-5301,1 55270U 23010B   23333.40549394  .00004441  00000-0  37976-3 0  9995,2 55270  69.9997 340.5795 0002497 257.7419 102.3461 14.98333174 47955,6950.183,96.107,573.784,570.313,0.0
55270.0,STARLINK-5301,PAYLOAD,2023-11-30 11:22:04,14.98331342,0.0002446,70.0,337.8867,254.3813,105.7076,4.9602e-05,4.99e-06,0.0,0 STARLINK-5301,1 55270U 23010B   23334.47365916  .00000499  00000-0  49602-4 0  9998,2 55270  70.0000 337.8867 0002446 254.3813 105.7076 14.98331342 48110,6950.189,96.107,573.754,570.354,0.0
55270.0,STARLINK-5301,PAYLOAD,2023-12-01 09:47:56,14.98335339,0.0002606,69.9994,335.5283,260.447,99.6395,-3.7346e-05,-5.39e-06,0.0,0 STARLINK-5301,1 55270U 23010B   23335.40829529 -.00000539  00000-0 -37346-4 0  9996,2 55270  69.9994 335.5283 0002606 260.4470  99.6395 14.98335339 48565,6950.176,96.107,573.853,570.23,0.0
55270.0,STARLINK-5301,PAYLOAD,2023-12-02 09:49:56,14.98341231,0.0002394,69.9997,333.0028,256.4747,103.6146,0.00021005,2.415e-05,0.0,0 STARLINK-5301,1 55270U 23010B   23336.40968308  .00002415  00000-0  21005-3 0  9993,2 55270  69.9997 333.0028 0002394 256.4747 103.6146 14.98341231 48405,6950.158,96.106,573.687,570.359,0.0
55270.0,STARLINK-5301,PAYLOAD,2023-12-03 03:27:25,14.98335465,0.0002926,69.9994,331.1554,263.3124,96.7703,4.544e-05,4.49e-06,0.0,0 STARLINK-5301,1 55270U 23010B   23337.14404480  .00000449  00000-0  45440-4 0  9996,2 55270  69.9994 331.1554 0002926 263.3124  96.7703 14.98335465 48517,6950.176,96.107,574.075,570.007,0.0
55270.0,STARLINK-5301,PAYLOAD,2023-12-03 09:51:58,14.98325835,0.0002454,70.0004,330.4799,269.0267,91.061,1.797e-05,1.21e-06,0.0,0 STARLINK-5301,1 55270U 23010B   23337.41109315  .00000121  00000-0  17970-4 0  9999,2 55270  70.0004 330.4799 0002454 269.0267  91.0610 14.98325835 48551,6950.206,96.107,573.776,570.365,0.0
55270.0,STARLINK-5301,PAYLOAD,2023-12-04 09:53:59,14.98325074,0.0002271,70.0006,327.9537,252.651,107.4401,-9.5407e-05,-1.231e-05,0.0,0 STARLINK-5301,1 55270U 23010B   23338.41249683 -.00001231  00000-0 -95407-4 0  9999,2 55270  70.0006 327.9537 0002271 252.6510 107.4401 14.98325074 48702,6950.208,96.107,573.652,570.495,0.0
55270.0,STARLINK-5301,PAYLOAD,2023-12-05 09:56:01,14.98310447,0.0002365,70.0004,325.4284,264.4755,95.6134,-7.9555e-05,-1.041e-05,0.0,0 STARLINK-5301,1 55270U 23010B   23339.41390918 -.00001041  00000-0 -79555-4 0  9993,2 55270  70.0004 325.4284 0002365 264.4755  95.6134 14.98310447 48853,6950.253,96.108,573.762,570.475,0.0
55270.0,STARLINK-5301,PAYLOAD,2023-12-06 03:33:30,14.98317948,0.0002719,69.9999,323.5768,276.95,83.135,7.7172e-05,8.28e-06,0.0,0 STARLINK-5301,1 55270U 23010B   23340.14826576  .00000828  00000-0  77172-4 0  9992,2 55270  69.9999 323.5768 0002719 276.9500  83.1350 14.98317948 48965,6950.23,96.108,573.985,570.205,0.0
55270.0,STARLINK-5301,PAYLOAD,2023-12-06 09:58:02,14.98320809,0.0002501,69.9999,322.9032,266.7401,93.3472,8.23e-05,8.89e-06,0.0,0 STARLINK-5301,1 55270U 23010B   23340.41530507  .00000889  00000-0  82300-4 0  9994,2 55270  69.9999 322.9032 0002501 266.7401  93.3472 14.98320809 49316,6950.221,96.108,573.825,570.348,0.0
55270.0,STARLINK-5301,PAYLOAD,2023-12-06 22:47:06,14.98324334,0.0002571,70.0005,321.5575,268.0949,91.9916,0.00025596,2.962e-05,0.0,0 STARLINK-5301,1 55270U 23010B   23340.94937793  .00002962  00000-0  25596-3 0  9997,2 55270  70.0005 321.5575 0002571 268.0949  91.9916 14.98324334 49395,6950.21,96.107,573.862,570.289,0.0
55270.0,STARLINK-5301,PAYLOAD,2023-12-07 05:11:38,14.9832951,0.0002785,69.9992,320.8842,266.7235,93.3605,0.00024563,2.839e-05,0.0,0 STARLINK-5301,1 55270U 23010B   23341.21641537  .00002839  00000-0  24563-3 0  9992,2 55270  69.9992 320.8842 0002785 266.7235  93.3605 14.98329510 49129,6950.194,96.107,573.995,570.124,0.0
55270.0,STARLINK-5301,PAYLOAD,2023-12-07 08:23:54,14.98331265,0.0002688,69.9994,320.5473,264.1144,95.9709,0.00026383,3.056e-05,0.0,0 STARLINK-5301,1 55270U 23010B   23341.34993369  .00003056  00000-0  26383-3 0  9993,2 55270  69.9994 320.5473 0002688 264.1144  95.9709 14.98331265 49450,6950.189,96.107,573.922,570.186,0.0
55270.0,STARLINK-5301,PAYLOAD,2023-12-08 08:25:55,14.9833381,0.0002663,69.9994,318.0225,265.0839,95.0016,6.6623e-05,7.02e-06,0.0,0 STARLINK-5301,1 55270U 23010B   23342.35133439  .00000702  00000-0  66623-4 0  9996,2 55270  69.9994 318.0225 0002663 265.0839  95.0016 14.98333810 49293,6950.181,96.107,573.897,570.195,0.0
